start=new Date('2022-02-15T00:00:00.000Z').valueOf();
sats=[{"ELEMENT_SET_NO":"999","MEAN_ELEMENT_THEORY":"SGP4","INCLINATION":"53.2175","ARG_OF_PERICENTER":"55.0595","DECAY_DATE":null,"TLE_LINE2":"2 50172  53.2175  77.3836 0001280  55.0595 238.6787 15.61479797  3688","RA_OF_ASC_NODE":"77.3836","GP_ID":"195968358","SITE":"AFWTR","APOAPSIS":"384.249","MEAN_MOTION":"15.61479797","REF_FRAME":"TEME","EPOCH":"2022-02-14T20:00:01.000224","EPHEMERIS_TYPE":"0","COUNTRY_CODE":"US","TIME_SYSTEM":"UTC","MEAN_ANOMALY":"238.6787","NORAD_CAT_ID":"50172","CLASSIFICATION_TYPE":"U","OBJECT_ID":"2021-125S","RCS_SIZE":"LARGE","ECCENTRICITY":"0.00012800","TLE_LINE1":"1 50172U 21125S   22045.83334491 -.00661156  00000-0 -82222-2 0  9999","LAUNCH_DATE":"2021-12-18","REV_AT_EPOCH":"368","MEAN_MOTION_DOT":"-0.00661156","PERIAPSIS":"382.518","OBJECT_NAME":"STARLINK-3287","FILE":"3300727","MEAN_MOTION_DDOT":"0.0000000000000","OBJECT_TYPE":"PAYLOAD","CENTER_NAME":"EARTH","SEMIMAJOR_AXIS":"6761.519","PERIOD":"92.220","BSTAR":"-0.00822220000000"},{"FILE":"3300727","OBJECT_NAME":"STARLINK-3289","SEMIMAJOR_AXIS":"6754.343","PERIOD":"92.073","CENTER_NAME":"EARTH","OBJECT_TYPE":"PAYLOAD","MEAN_MOTION_DDOT":"0.0000000000000","BSTAR":"-0.00324050000000","ECCENTRICITY":"0.00053270","RCS_SIZE":"LARGE","OBJECT_ID":"2021-125T","LAUNCH_DATE":"2021-12-18","REV_AT_EPOCH":"368","TLE_LINE1":"1 50173U 21125T   22045.83334491 -.00300843  00000-0 -32405-2 0  9991","PERIAPSIS":"372.610","MEAN_MOTION_DOT":"-0.00300843","MEAN_ANOMALY":"336.3090","EPHEMERIS_TYPE":"0","COUNTRY_CODE":"US","TIME_SYSTEM":"UTC","EPOCH":"2022-02-14T20:00:01.000224","NORAD_CAT_ID":"50173","CLASSIFICATION_TYPE":"U","ELEMENT_SET_NO":"999","ARG_OF_PERICENTER":"277.8237","INCLINATION":"53.2176","MEAN_ELEMENT_THEORY":"SGP4","GP_ID":"195969609","RA_OF_ASC_NODE":"77.5045","TLE_LINE2":"2 50173  53.2176  77.5045 0005327 277.8237 336.3090 15.63968672  3687","DECAY_DATE":null,"MEAN_MOTION":"15.63968672","REF_FRAME":"TEME","APOAPSIS":"379.807","SITE":"AFWTR"},{"BSTAR":"-0.00810980000000","CENTER_NAME":"EARTH","OBJECT_TYPE":"PAYLOAD","PERIOD":"92.200","SEMIMAJOR_AXIS":"6760.522","MEAN_MOTION_DDOT":"0.0000000000000","FILE":"3300727","OBJECT_NAME":"STARLINK-3292","PERIAPSIS":"381.596","MEAN_MOTION_DOT":"-0.00660953","REV_AT_EPOCH":"368","LAUNCH_DATE":"2021-12-18","TLE_LINE1":"1 50174U 21125U   22045.83334491 -.00660953  00000-0 -81098-2 0  9995","ECCENTRICITY":"0.00011710","OBJECT_ID":"2021-125U","RCS_SIZE":"LARGE","CLASSIFICATION_TYPE":"U","NORAD_CAT_ID":"50174","MEAN_ANOMALY":"243.1039","EPOCH":"2022-02-14T20:00:01.000224","EPHEMERIS_TYPE":"0","COUNTRY_CODE":"US","TIME_SYSTEM":"UTC","MEAN_MOTION":"15.61825051","REF_FRAME":"TEME","SITE":"AFWTR","APOAPSIS":"383.179","TLE_LINE2":"2 50174  53.2175  77.3790 0001171  63.7135 243.1039 15.61825051  3683","RA_OF_ASC_NODE":"77.3790","GP_ID":"195969859","DECAY_DATE":null,"ARG_OF_PERICENTER":"63.7135","MEAN_ELEMENT_THEORY":"SGP4","INCLINATION":"53.2175","ELEMENT_SET_NO":"999"},{"ARG_OF_PERICENTER":"65.0897","MEAN_ELEMENT_THEORY":"SGP4","INCLINATION":"53.2175","ELEMENT_SET_NO":"999","REF_FRAME":"TEME","MEAN_MOTION":"15.61134336","SITE":"AFWTR","APOAPSIS":"385.210","TLE_LINE2":"2 50175  53.2175  77.3875 0001226  65.0897 215.2630 15.61134336  3685","RA_OF_ASC_NODE":"77.3875","GP_ID":"195968609","DECAY_DATE":null,"MEAN_ANOMALY":"215.2630","EPOCH":"2022-02-14T20:00:01.000224","EPHEMERIS_TYPE":"0","COUNTRY_CODE":"US","TIME_SYSTEM":"UTC","CLASSIFICATION_TYPE":"U","NORAD_CAT_ID":"50175","ECCENTRICITY":"0.00012260","OBJECT_ID":"2021-125V","RCS_SIZE":"LARGE","PERIAPSIS":"383.552","MEAN_MOTION_DOT":"-0.00660994","REV_AT_EPOCH":"368","LAUNCH_DATE":"2021-12-18","TLE_LINE1":"1 50175U 21125V   22045.83334491 -.00660994  00000-0 -83313-2 0  9993","OBJECT_TYPE":"PAYLOAD","CENTER_NAME":"EARTH","PERIOD":"92.241","SEMIMAJOR_AXIS":"6762.516","MEAN_MOTION_DDOT":"0.0000000000000","FILE":"3300727","OBJECT_NAME":"STARLINK-3291","BSTAR":"-0.00833130000000"},{"TLE_LINE2":"2 50176  53.2175  77.3805 0001347  49.3548 253.1369 15.61710060  3685","RA_OF_ASC_NODE":"77.3805","GP_ID":"195968859","DECAY_DATE":null,"REF_FRAME":"TEME","MEAN_MOTION":"15.61710060","SITE":"AFWTR","APOAPSIS":"383.630","ELEMENT_SET_NO":"999","ARG_OF_PERICENTER":"49.3548","MEAN_ELEMENT_THEORY":"SGP4","INCLINATION":"53.2175","NORAD_CAT_ID":"50176","CLASSIFICATION_TYPE":"U","MEAN_ANOMALY":"253.1369","EPOCH":"2022-02-14T20:00:01.000224","COUNTRY_CODE":"US","TIME_SYSTEM":"UTC","EPHEMERIS_TYPE":"0","REV_AT_EPOCH":"368","LAUNCH_DATE":"2021-12-18","TLE_LINE1":"1 50176U 21125W   22045.83334491 -.00661187  00000-0 -81490-2 0  9993","PERIAPSIS":"381.808","MEAN_MOTION_DOT":"-0.00661187","ECCENTRICITY":"0.00013470","OBJECT_ID":"2021-125W","RCS_SIZE":"LARGE","BSTAR":"-0.00814900000000","FILE":"3300727","OBJECT_NAME":"STARLINK-3293","OBJECT_TYPE":"PAYLOAD","CENTER_NAME":"EARTH","PERIOD":"92.207","SEMIMAJOR_AXIS":"6760.854","MEAN_MOTION_DDOT":"0.0000000000000"},{"INCLINATION":"53.2175","MEAN_ELEMENT_THEORY":"SGP4","ARG_OF_PERICENTER":"57.7820","ELEMENT_SET_NO":"999","APOAPSIS":"384.568","SITE":"AFWTR","REF_FRAME":"TEME","MEAN_MOTION":"15.61364644","DECAY_DATE":null,"GP_ID":"195969109","RA_OF_ASC_NODE":"77.3850","TLE_LINE2":"2 50177  53.2175  77.3850 0001259  57.7820 231.5285 15.61364644  3684","COUNTRY_CODE":"US","EPHEMERIS_TYPE":"0","TIME_SYSTEM":"UTC","EPOCH":"2022-02-14T20:00:01.000224","MEAN_ANOMALY":"231.5285","CLASSIFICATION_TYPE":"U","NORAD_CAT_ID":"50177","RCS_SIZE":"LARGE","OBJECT_ID":"2021-125X","ECCENTRICITY":"0.00012590","MEAN_MOTION_DOT":"-0.00661128","PERIAPSIS":"382.865","TLE_LINE1":"1 50177U 21125X   22045.83334491 -.00661128  00000-0 -82588-2 0  9998","LAUNCH_DATE":"2021-12-18","REV_AT_EPOCH":"368","MEAN_MOTION_DDOT":"0.0000000000000","PERIOD":"92.227","SEMIMAJOR_AXIS":"6761.851","OBJECT_TYPE":"PAYLOAD","CENTER_NAME":"EARTH","OBJECT_NAME":"STARLINK-3282","FILE":"3300727","BSTAR":"-0.00825880000000"},{"RCS_SIZE":"LARGE","OBJECT_ID":"2021-125Y","ECCENTRICITY":"0.00012580","MEAN_MOTION_DOT":"-0.00660760","PERIAPSIS":"385.487","TLE_LINE1":"1 50178U 21125Y   22045.83334491 -.00660760  00000-0 -85494-2 0  9999","LAUNCH_DATE":"2021-12-18","REV_AT_EPOCH":"368","MEAN_MOTION_DDOT":"0.0000000000000","PERIOD":"92.281","SEMIMAJOR_AXIS":"6764.473","CENTER_NAME":"EARTH","OBJECT_TYPE":"PAYLOAD","OBJECT_NAME":"STARLINK-3284","FILE":"3300727","BSTAR":"-0.00854940000000","INCLINATION":"53.2175","MEAN_ELEMENT_THEORY":"SGP4","ARG_OF_PERICENTER":"62.9039","ELEMENT_SET_NO":"999","APOAPSIS":"387.189","SITE":"AFWTR","REF_FRAME":"TEME","MEAN_MOTION":"15.60456860","DECAY_DATE":null,"RA_OF_ASC_NODE":"77.3641","GP_ID":"195969359","TLE_LINE2":"2 50178  53.2175  77.3641 0001258  62.9039 207.9925 15.60456860  3681","TIME_SYSTEM":"UTC","COUNTRY_CODE":"US","EPHEMERIS_TYPE":"0","EPOCH":"2022-02-14T20:00:01.000224","MEAN_ANOMALY":"207.9925","CLASSIFICATION_TYPE":"U","NORAD_CAT_ID":"50178"},{"RCS_SIZE":"LARGE","OBJECT_ID":"2021-125Z","ECCENTRICITY":"0.00012880","MEAN_MOTION_DOT":"-0.00661164","PERIAPSIS":"382.181","TLE_LINE1":"1 50179U 21125Z   22045.83334491 -.00661164  00000-0 -81855-2 0  9996","REV_AT_EPOCH":"368","LAUNCH_DATE":"2021-12-18","MEAN_MOTION_DDOT":"0.0000000000000","SEMIMAJOR_AXIS":"6761.186","PERIOD":"92.213","CENTER_NAME":"EARTH","OBJECT_TYPE":"PAYLOAD","OBJECT_NAME":"STARLINK-3283","FILE":"3300727","BSTAR":"-0.00818550000000","INCLINATION":"53.2175","MEAN_ELEMENT_THEORY":"SGP4","ARG_OF_PERICENTER":"53.9732","ELEMENT_SET_NO":"999","APOAPSIS":"383.922","SITE":"AFWTR","REF_FRAME":"TEME","MEAN_MOTION":"15.61594929","DECAY_DATE":null,"GP_ID":"195968109","RA_OF_ASC_NODE":"77.3822","TLE_LINE2":"2 50179  53.2175  77.3822 0001288  53.9732 244.1588 15.61594929  3684","TIME_SYSTEM":"UTC","COUNTRY_CODE":"US","EPHEMERIS_TYPE":"0","EPOCH":"2022-02-14T20:00:01.000224","MEAN_ANOMALY":"244.1588","CLASSIFICATION_TYPE":"U","NORAD_CAT_ID":"50179"},{"OBJECT_ID":"2021-125AA","RCS_SIZE":"LARGE","ECCENTRICITY":"0.00012660","MEAN_MOTION_DOT":"-0.00660981","PERIAPSIS":"380.867","TLE_LINE1":"1 50180U 21125AA  22045.83334491 -.00660981  00000-0 -80373-2 0  9998","LAUNCH_DATE":"2021-12-18","REV_AT_EPOCH":"368","MEAN_MOTION_DDOT":"0.0000000000000","CENTER_NAME":"EARTH","OBJECT_TYPE":"PAYLOAD","PERIOD":"92.186","SEMIMAJOR_AXIS":"6759.858","OBJECT_NAME":"STARLINK-3265","FILE":"3300727","BSTAR":"-0.00803730000000","MEAN_ELEMENT_THEORY":"SGP4","INCLINATION":"53.2175","ARG_OF_PERICENTER":"52.7483","ELEMENT_SET_NO":"999","SITE":"AFWTR","APOAPSIS":"382.579","REF_FRAME":"TEME","MEAN_MOTION":"15.62055312","DECAY_DATE":null,"TLE_LINE2":"2 50180  53.2175  77.3755 0001266  52.7483 262.6181 15.62055312  3680","GP_ID":"195968359","RA_OF_ASC_NODE":"77.3755","EPOCH":"2022-02-14T20:00:01.000224","COUNTRY_CODE":"US","TIME_SYSTEM":"UTC","EPHEMERIS_TYPE":"0","MEAN_ANOMALY":"262.6181","CLASSIFICATION_TYPE":"U","NORAD_CAT_ID":"50180"},{"CLASSIFICATION_TYPE":"U","NORAD_CAT_ID":"50181","EPOCH":"2022-02-14T20:00:01.000224","EPHEMERIS_TYPE":"0","COUNTRY_CODE":"US","TIME_SYSTEM":"UTC","MEAN_ANOMALY":"270.5951","SITE":"AFWTR","APOAPSIS":"381.900","REF_FRAME":"TEME","MEAN_MOTION":"15.62285531","DECAY_DATE":null,"TLE_LINE2":"2 50181  53.2175  77.3720 0001244  53.1841 270.5951 15.62285531  3683","GP_ID":"195969610","RA_OF_ASC_NODE":"77.3720","MEAN_ELEMENT_THEORY":"SGP4","INCLINATION":"53.2175","ARG_OF_PERICENTER":"53.1841","ELEMENT_SET_NO":"999","BSTAR":"-0.00796420000000","MEAN_MOTION_DDOT":"0.0000000000000","CENTER_NAME":"EARTH","OBJECT_TYPE":"PAYLOAD","PERIOD":"92.173","SEMIMAJOR_AXIS":"6759.194","OBJECT_NAME":"STARLINK-3285","FILE":"3300727","MEAN_MOTION_DOT":"-0.00660904","PERIAPSIS":"380.218","TLE_LINE1":"1 50181U 21125AB  22045.83334491 -.00660904  00000-0 -79642-2 0  9991","REV_AT_EPOCH":"368","LAUNCH_DATE":"2021-12-18","OBJECT_ID":"2021-125AB","RCS_SIZE":"LARGE","ECCENTRICITY":"0.00012440"}];
